IRIDIUM 36              
1 24967U 97056C   24317.58200526  .00001670  00000+0  55463-3 0  9999
2 24967  86.3945 263.9419 0002418  79.9339 280.2131 14.37220361421108
IRIDIUM 39              
1 25042U 97069D   24317.55753669  .00002220  00000+0  58444-3 0  9990
2 25042  86.3873 304.0224 0016292 315.9215  44.0689 14.48607181417598
IRIDIUM 38              
1 25043U 97069E   24317.54097271  .00001510  00000+0  49616-3 0  9992
2 25043  86.3936 324.3315 0004166  89.7017 270.4658 14.37700757414823
IRIDIUM 42              
1 25077U 97077A   24317.56201183  .00001346  00000+0  45705-3 0  9991
2 25077  86.3949 330.2255 0002929  94.4267 265.7264 14.35968428410104
IRIDIUM 44              
1 25078U 97077B   24317.54341557  .00001712  00000+0  53959-3 0  9997
2 25078  86.3920 312.7290 0003453  59.0871 301.0667 14.39829903412526
IRIDIUM 45              
1 25104U 97082A   24317.56922726  .00022127  00000+0  10201-2 0  9993
2 25104  86.3620 152.1730 0143103  57.2741 304.2198 15.11359942419209
IRIDIUM 24              
1 25105U 97082B   24317.58467623  .00001425  00000+0  43116-3 0  9996
2 25105  86.3944 172.0985 0013480  75.4366 284.8328 14.41660713412003
IRIDIUM 51              
1 25262U 98018A   24317.58386148  .00033700  00000+0  12107-2 0  9998
2 25262  86.3928 161.5096 0121718 353.2526   6.7071 15.21668964413893
